{
  "type": "FeatureCollection",
  "features": [
    {
      "type": "Feature",
      "properties": {},
      "geometry": {
        "type": "Polygon",
        "coordinates": [
          [
            [126.5166857401831, 37.79260969694329],
            [126.54168130217079, 37.59330803007991],
            [126.57436920468979, 37.5856899978224],
            [126.65895847104116, 37.635923154854936],
            [126.73202339233154, 37.58414775869055],
            [126.78394020890329, 37.582628690469576],
            [126.74547999963329, 37.510976892080905],
            [126.78200362214892, 37.46368148692642],
            [126.7377986466011, 37.39498025232153],
            [126.49745681203541, 37.278793203787515],
            [126.60705842477023, 37.0688871681524],
            [126.88776178942385, 36.893825933027074],
            [127.30436420598602, 36.89267969237645],
            [127.75064355486336, 37.20079376158556],
            [127.84904607663128, 37.549768545695144],
            [127.54987379938808, 37.67424355278608],
            [127.64069655037417, 37.9393108969671],
            [127.43355134915163, 38.12652764529943],
            [127.09388663579068, 38.291367802015316],
            [126.68306793275008, 37.94914727486693],
            [126.65589606163144, 37.78446604143598],
            [126.5166857401831, 37.79260969694329]
          ]
        ]
      }
    }
  ]
}
